{"type":"FeatureCollection","features":[{"type":"Feature","properties":{"kind":"water","name":"S\u00f8nders\u00f8"},"geometry":{"type":"Polygon","coordinates":[[[12.304,55.776],[12.318,55.765],[12.343,55.762],[12.36,55.771],[12.354,55.786],[12.332,55.792],[12.311,55.787],[12.304,55.776]]]}},{"type":"Feature","properties":{"kind":"water","name":"Fures\u00f8"},"geometry":{"type":"Polygon","coordinates":[[[12.392,55.812],[12.42,55.813],[12.449,55.808],[12.463,55.798],[12.447,55.79],[12.416,55.792],[12.397,55.8],[12.392,55.812]]]}},{"type":"Feature","properties":{"kind":"water","name":"Bagsv\u00e6rd S\u00f8"},"geometry":{"type":"Polygon","coordinates":[[[12.451,55.779],[12.469,55.78],[12.478,55.772],[12.472,55.762],[12.454,55.763],[12.446,55.771],[12.451,55.779]]]}},{"type":"Feature","properties":{"kind":"park","name":"Hareskoven"},"geometry":{"type":"Polygon","coordinates":[[[12.342,55.77],[12.372,55.77],[12.401,55.779],[12.424,55.798],[12.413,55.808],[12.38,55.802],[12.353,55.789],[12.342,55.77]]]}},{"type":"Feature","properties":{"kind":"park","name":"Bagsv\u00e6rd green"},"geometry":{"type":"Polygon","coordinates":[[[12.43,55.754],[12.469,55.754],[12.481,55.741],[12.457,55.735],[12.43,55.741],[12.43,55.754]]]}},{"type":"Feature","properties":{"kind":"major-road","name":"Ring 4"},"geometry":{"type":"LineString","coordinates":[[12.3,55.753],[12.335,55.76],[12.37,55.768],[12.405,55.773],[12.445,55.767],[12.49,55.759]]}},{"type":"Feature","properties":{"kind":"major-road","name":"Hiller\u00f8dmotorvejen"},"geometry":{"type":"LineString","coordinates":[[12.365,55.735],[12.377,55.755],[12.391,55.775],[12.405,55.795],[12.42,55.817]]}},{"type":"Feature","properties":{"kind":"major-road","name":"Bagsv\u00e6rdvej"},"geometry":{"type":"LineString","coordinates":[[12.327,55.799],[12.357,55.794],[12.39,55.788],[12.425,55.78],[12.466,55.772]]}},{"type":"Feature","properties":{"kind":"major-road","name":"Frederikssundsvej"},"geometry":{"type":"LineString","coordinates":[[12.333,55.82],[12.354,55.806],[12.375,55.791],[12.398,55.776],[12.423,55.761],[12.45,55.745]]}},{"type":"Feature","properties":{"kind":"rail","name":"S-train"},"geometry":{"type":"LineString","coordinates":[[12.334,55.815],[12.35,55.803],[12.368,55.792],[12.39,55.782],[12.414,55.771],[12.44,55.759],[12.47,55.748]]}},{"type":"Feature","properties":{"kind":"minor-road","name":"East west 1"},"geometry":{"type":"LineString","coordinates":[[12.32,55.744],[12.345,55.745],[12.37,55.743],[12.395,55.745],[12.42,55.744],[12.445,55.743],[12.475,55.744]]}},{"type":"Feature","properties":{"kind":"minor-road","name":"East west 2"},"geometry":{"type":"LineString","coordinates":[[12.32,55.751],[12.345,55.751999999999995],[12.37,55.75],[12.395,55.751999999999995],[12.42,55.751],[12.445,55.75],[12.475,55.751]]}},{"type":"Feature","properties":{"kind":"minor-road","name":"East west 3"},"geometry":{"type":"LineString","coordinates":[[12.32,55.758],[12.345,55.759],[12.37,55.757000000000005],[12.395,55.759],[12.42,55.758],[12.445,55.757000000000005],[12.475,55.758]]}},{"type":"Feature","properties":{"kind":"minor-road","name":"East west 4"},"geometry":{"type":"LineString","coordinates":[[12.32,55.765],[12.345,55.766],[12.37,55.764],[12.395,55.766],[12.42,55.765],[12.445,55.764],[12.475,55.765]]}},{"type":"Feature","properties":{"kind":"minor-road","name":"East west 5"},"geometry":{"type":"LineString","coordinates":[[12.32,55.772],[12.345,55.772999999999996],[12.37,55.771],[12.395,55.772999999999996],[12.42,55.772],[12.445,55.771],[12.475,55.772]]}},{"type":"Feature","properties":{"kind":"minor-road","name":"East west 6"},"geometry":{"type":"LineString","coordinates":[[12.32,55.779],[12.345,55.78],[12.37,55.778000000000006],[12.395,55.78],[12.42,55.779],[12.445,55.778000000000006],[12.475,55.779]]}},{"type":"Feature","properties":{"kind":"minor-road","name":"East west 7"},"geometry":{"type":"LineString","coordinates":[[12.32,55.786],[12.345,55.787],[12.37,55.785000000000004],[12.395,55.787],[12.42,55.786],[12.445,55.785000000000004],[12.475,55.786]]}},{"type":"Feature","properties":{"kind":"minor-road","name":"East west 8"},"geometry":{"type":"LineString","coordinates":[[12.32,55.793],[12.345,55.794],[12.37,55.792],[12.395,55.794],[12.42,55.793],[12.445,55.792],[12.475,55.793]]}},{"type":"Feature","properties":{"kind":"minor-road","name":"East west 9"},"geometry":{"type":"LineString","coordinates":[[12.32,55.8],[12.345,55.800999999999995],[12.37,55.799],[12.395,55.800999999999995],[12.42,55.8],[12.445,55.799],[12.475,55.8]]}},{"type":"Feature","properties":{"kind":"minor-road","name":"North south 1"},"geometry":{"type":"LineString","coordinates":[[12.333,55.738],[12.335,55.754],[12.332,55.77],[12.335,55.786],[12.333,55.804]]}},{"type":"Feature","properties":{"kind":"minor-road","name":"North south 2"},"geometry":{"type":"LineString","coordinates":[[12.347,55.738],[12.349,55.754],[12.346,55.77],[12.349,55.786],[12.347,55.804]]}},{"type":"Feature","properties":{"kind":"minor-road","name":"North south 3"},"geometry":{"type":"LineString","coordinates":[[12.361,55.738],[12.363000000000001,55.754],[12.360000000000001,55.77],[12.363000000000001,55.786],[12.361,55.804]]}},{"type":"Feature","properties":{"kind":"minor-road","name":"North south 4"},"geometry":{"type":"LineString","coordinates":[[12.375,55.738],[12.377,55.754],[12.374,55.77],[12.377,55.786],[12.375,55.804]]}},{"type":"Feature","properties":{"kind":"minor-road","name":"North south 5"},"geometry":{"type":"LineString","coordinates":[[12.389,55.738],[12.391,55.754],[12.388,55.77],[12.391,55.786],[12.389,55.804]]}},{"type":"Feature","properties":{"kind":"minor-road","name":"North south 6"},"geometry":{"type":"LineString","coordinates":[[12.403,55.738],[12.405000000000001,55.754],[12.402000000000001,55.77],[12.405000000000001,55.786],[12.403,55.804]]}},{"type":"Feature","properties":{"kind":"minor-road","name":"North south 7"},"geometry":{"type":"LineString","coordinates":[[12.417,55.738],[12.419,55.754],[12.416,55.77],[12.419,55.786],[12.417,55.804]]}},{"type":"Feature","properties":{"kind":"minor-road","name":"North south 8"},"geometry":{"type":"LineString","coordinates":[[12.431,55.738],[12.433,55.754],[12.43,55.77],[12.433,55.786],[12.431,55.804]]}},{"type":"Feature","properties":{"kind":"minor-road","name":"North south 9"},"geometry":{"type":"LineString","coordinates":[[12.445,55.738],[12.447000000000001,55.754],[12.444,55.77],[12.447000000000001,55.786],[12.445,55.804]]}},{"type":"Feature","properties":{"kind":"minor-road","name":"North south 10"},"geometry":{"type":"LineString","coordinates":[[12.459,55.738],[12.461,55.754],[12.458,55.77],[12.461,55.786],[12.459,55.804]]}},{"type":"Feature","properties":{"kind":"minor-road","name":"Forest path 1"},"geometry":{"type":"LineString","coordinates":[[12.35,55.775],[12.365,55.782],[12.38,55.789],[12.397,55.798]]}},{"type":"Feature","properties":{"kind":"minor-road","name":"Forest path 2"},"geometry":{"type":"LineString","coordinates":[[12.356,55.775],[12.371,55.782],[12.386000000000001,55.789],[12.403,55.798]]}},{"type":"Feature","properties":{"kind":"minor-road","name":"Forest path 3"},"geometry":{"type":"LineString","coordinates":[[12.362,55.775],[12.377,55.782],[12.392000000000001,55.789],[12.409,55.798]]}},{"type":"Feature","properties":{"kind":"minor-road","name":"Forest path 4"},"geometry":{"type":"LineString","coordinates":[[12.368,55.775],[12.383000000000001,55.782],[12.398000000000001,55.789],[12.415000000000001,55.798]]}}]}
